COSMOS 2251 DEB         
1 40796U 93036BVZ 17342.83058078  .00000353  00000-0  75493-4 0  9996
2 40796  74.0220  19.9502 0078163 172.2033 312.3592 14.60924070216234
